[{"OBJECT_NAME":"STARLINK-32404","OBJECT_ID":"2024-196D","EPOCH":"2026-03-09T08:43:00.462720","MEAN_MOTION":15.3018806,"ECCENTRICITY":0.00012747,"INCLINATION":53.1598,"RA_OF_ASC_NODE":103.0657,"ARG_OF_PERICENTER":76.9495,"MEAN_ANOMALY":283.1648,"EPHEMERIS_TYPE":0,"CLASSIFICATION_TYPE":"U","NORAD_CAT_ID":61710,"ELEMENT_SET_NO":999,"REV_AT_EPOCH":7710,"BSTAR":2.1940495e-5,"MEAN_MOTION_DOT":2.9e-6,"MEAN_MOTION_DDOT":0},{"OBJECT_NAME":"OBJECT BE","OBJECT_ID":"2024-199BE","EPOCH":"2026-03-09T22:35:11.240448","MEAN_MOTION":15.34583634,"ECCENTRICITY":0.00126202,"INCLINATION":97.3163,"RA_OF_ASC_NODE":298.7137,"ARG_OF_PERICENTER":307.7021,"MEAN_ANOMALY":52.3078,"EPHEMERIS_TYPE":0,"CLASSIFICATION_TYPE":"U","NORAD_CAT_ID":61787,"ELEMENT_SET_NO":999,"REV_AT_EPOCH":12186,"BSTAR":0.00035348262,"MEAN_MOTION_DOT":0.00011799,"MEAN_MOTION_DDOT":0}]
